{"type": "FeatureCollection", "features": [ {"type": "Feature", "properties": {"norad_id": 58655, "name": "BEIDOU-3 M26 (C48)", "group": "beidou", "lat": -26.26241322200303, "lon": 48.63469116267123, "alt_km": 21527.47530894906, "timestamp": "2025-12-19T16:54:44.526859+00:00", "meta": {"OBJECT_NAME": "BEIDOU-3 M26 (C48)", "OBJECT_ID": "2023-207B", "EPOCH": "2025-12-19T05:11:10.015296", "MEAN_MOTION": 1.86231346, "ECCENTRICITY": 0.00040425, "INCLINATION": 55.592, "RA_OF_ASC_NODE": 68.3684, "ARG_OF_PERICENTER": 258.4158, "MEAN_ANOMALY": 101.5732, "EPHEMERIS_TYPE": 0, "CLASSIFICATION_TYPE": "U", "NORAD_CAT_ID": 58655, "ELEMENT_SET_NO": 999, "REV_AT_EPOCH": 1347, "BSTAR": 0, "MEAN_MOTION_DOT": -5.7e-07, "MEAN_MOTION_DDOT": 0}, "tle": {"line1": "1 58655U 23207B   25353.21608814 -.00000057  00000+0  00000+0 0  9992", "line2": "2 58655  55.5920  68.3684 0004042 258.4158 101.5732  1.86231346 13473"}}, "geometry": {"type": "Point", "coordinates": [48.63469116267123, -26.26241322200303]}}, {"type": "Feature", "properties": {"norad_id": 61186, "name": "BEIDOU-3 M25 (C47)", "group": "beidou", "lat": 54.27517695118146, "lon": 29.038003741173938, "alt_km": 21534.299103327103, "timestamp": "2025-12-19T16:54:44.526871+00:00", "meta": {"OBJECT_NAME": "BEIDOU-3 M25 (C47)", "OBJECT_ID": "2024-168B", "EPOCH": "2025-12-19T07:17:41.808768", "MEAN_MOTION": 1.86230286, "ECCENTRICITY": 0.00054499, "INCLINATION": 54.6362, "RA_OF_ASC_NODE": 308.493, "ARG_OF_PERICENTER": 299.3686, "MEAN_ANOMALY": 236.4152, "EPHEMERIS_TYPE": 0, "CLASSIFICATION_TYPE": "U", "NORAD_CAT_ID": 61186, "ELEMENT_SET_NO": 999, "REV_AT_EPOCH": 843, "BSTAR": 0, "MEAN_MOTION_DOT": -7.8e-07, "MEAN_MOTION_DDOT": 0}, "tle": {"line1": "1 61186U 24168B   25353.30395612 -.00000078  00000+0  00000+0 0  9994", "line2": "2 61186  54.6362 308.4930 0005449 299.3686 236.4152  1.86230286  8436"}}, "geometry": {"type": "Point", "coordinates": [29.038003741173938, 54.27517695118146]}}, {"type": "Feature", "properties": {"norad_id": 61187, "name": "BEIDOU-3 M27 (C49)", "group": "beidou", "lat": -31.192363775570332, "lon": 153.88396938978548, "alt_km": 21535.5230310877, "timestamp": "2025-12-19T16:54:44.526882+00:00", "meta": {"OBJECT_NAME": "BEIDOU-3 M27 (C49)", "OBJECT_ID": "2024-168C", "EPOCH": "2025-12-18T11:15:38.296800", "MEAN_MOTION": 1.86230443, "ECCENTRICITY": 0.00025049, "INCLINATION": 54.6324, "RA_OF_ASC_NODE": 308.5054, "ARG_OF_PERICENTER": 339.4033, "MEAN_ANOMALY": 131.6614, "EPHEMERIS_TYPE": 0, "CLASSIFICATION_TYPE": "U", "NORAD_CAT_ID": 61187, "ELEMENT_SET_NO": 999, "REV_AT_EPOCH": 589, "BSTAR": 0, "MEAN_MOTION_DOT": -8.4e-07, "MEAN_MOTION_DDOT": 0}, "tle": {"line1": "1 61187U 24168C   25352.46919325 -.00000084  00000+0  00000+0 0  9991", "line2": "2 61187  54.6324 308.5054 0002504 339.4033 131.6614  1.86230443  5895"}}, "geometry": {"type": "Point", "coordinates": [153.88396938978548, -31.192363775570332]}}]}